[ {"name": "STARLINK-32387", "line1": "1 61704U 24195T   26158.09637917  .00000900  00000+0  37777-4 0  9996", "line2": "2 61704  53.1614  98.3988 0001386 111.6657 248.4494 15.34391284 90891"}, {"name": "STARLINK-32515", "line1": "1 61705U 24195U   26158.53838611 -.00000188  00000+0  57660-5 0  9993", "line2": "2 61705  53.1619  98.3082 0001250  94.6708 265.4436 15.30192798 90934"}, {"name": "STARLINK-32533", "line1": "1 61706U 24195V   26158.55444145  .00001007  00000+0  40945-4 0  9998", "line2": "2 61706  53.1600  96.2818 0001339  92.6190 267.4966 15.34384759 90967"}, {"name": "STARLINK-32376", "line1": "1 61707U 24196A   26158.38267622  .00000458  00000+0  27595-4 0  9999", "line2": "2 61707  53.1566  44.4026 0001209  99.2890 260.8248 15.30191231 90902"}, {"name": "STARLINK-32402", "line1": "1 61708U 24196B   26158.41326714 -.00001320  00000+0 -32468-4 0  9998", "line2": "2 61708  53.1603  44.5886 0001077 101.6929 258.4192 15.30196169 90898"}, {"name": "STARLINK-32314", "line1": "1 61709U 24196C   26158.39639753 -.00000102  00000+0  86764-5 0  9991", "line2": "2 61709  53.1612  44.4800 0001418  84.3994 275.7169 15.30185795 90891"}, {"name": "STARLINK-32404", "line1": "1 61710U 24196D   26157.97506344  .00001058  00000+0  47825-4 0  9999", "line2": "2 61710  53.1604  46.8278 0001233  59.7135 300.3987 15.30201153 90820"}, {"name": "STARLINK-32312", "line1": "1 61711U 24196E   26158.38900789 -.00001196  00000+0 -28253-4 0  9996", "line2": "2 61711  53.1608  44.4334 0001678  88.1937 271.9256 15.30196424 90894"}, {"name": "STARLINK-32343", "line1": "1 61712U 24196F   26158.42171437  .00003971  00000+0  14616-3 0  9990", "line2": "2 61712  53.1609  44.6404 0001151  52.0452 308.0653 15.30192357 90898"}, {"name": "STARLINK-32467", "line1": "1 61713U 24196G   26157.32048909  .00053148  00000+0  15908-2 0  9991", "line2": "2 61713  53.1596  49.8569 0001035  75.1478 284.9639 15.34043987 90724"}, {"name": "STARLINK-32440", "line1": "1 61714U 24196H   26158.80685383  .00066244  00000+0  21934-2 0  9996", "line2": "2 61714  53.1651  42.7774 0004088  34.0341 326.0922 15.30714476 90953"}, {"name": "STARLINK-32459", "line1": "1 61715U 24196J   26158.40270904  .00003785  00000+0  13988-3 0  9994", "line2": "2 61715  53.1621  44.5169 0001168 108.9522 251.1606 15.30192606 90892"}, {"name": "STARLINK-32465", "line1": "1 61716U 24196K   26158.17690845  .00045460  00000+0  15193-2 0  9994", "line2": "2 61716  53.1608  45.9542 0004669  53.2531 306.8899 15.30580658 90855"}, {"name": "STARLINK-32457", "line1": "1 61717U 24196L   26158.39955646  .00000569  00000+0  31352-4 0  9990", "line2": "2 61717  53.1601  44.5032 0001366  77.4628 282.6525 15.30193355 90899"}, {"name": "STARLINK-32591", "line1": "1 61718U 24196M   26158.37688206  .00002387  00000+0  81742-4 0  9992", "line2": "2 61718  53.1613  30.8294 0001030  88.8637 271.2484 15.34407307 91084"}, {"name": "STARLINK-32344", "line1": "1 61719U 24196N   26157.97191383  .00000088  00000+0  15100-4 0  9994", "line2": "2 61719  53.1607  46.8125 0001201  87.3567 272.7572 15.30186596 90829"}, {"name": "STARLINK-32322", "line1": "1 61720U 24196P   26158.83337963  .00054971  00000+0  16329-2 0  9990", "line2": "2 61720  53.1594  42.8523 0003135  84.7352 321.4367 15.34268682  5893"}, {"name": "STARLINK-32469", "line1": "1 61721U 24196Q   26158.39322183 -.00001003  00000+0 -21743-4 0  9998", "line2": "2 61721  53.1614  44.4577 0001192  80.6111 279.5025 15.30199724 90897"}, {"name": "STARLINK-32438", "line1": "1 61722U 24196R   26157.97823183 -.00000661  00000+0 -10210-4 0  9994", "line2": "2 61722  53.1603  46.8474 0001115 109.8148 250.2973 15.30191026 90825"}, {"name": "STARLINK-32540", "line1": "1 61723U 24196S   26158.87682266 -.00002417  00000+0 -60486-4 0  9991", "line2": "2 61723  53.1619   6.4483 0001181 106.4550 253.6582 15.34373807 91465"}, {"name": "STARLINK-32528", "line1": "1 61724U 24196T   26158.83337963 -.00002384  00000+0 -59504-4 0  9991", "line2": "2 61724  53.1602  42.7612 0001209  94.6512 357.8807 15.34368342  5697"}, {"name": "STARLINK-32573", "line1": "1 61725U 24196U   26156.98899378  .00003343  00000+0  12487-3 0  9991", "line2": "2 61725  53.1607  51.3375 0001604  67.7246 292.3925 15.30225783 90672"}, {"name": "STARLINK-32478", "line1": "1 61726U 24196V   26158.41854572 -.00001308  00000+0 -32068-4 0  9998", "line2": "2 61726  53.1591  44.6163 0000710  84.2125 275.8957 15.30199291 90891"}, {"name": "STARLINK-32511", "line1": "1 61727U 24196W   26158.41221310  .00001813  00000+0  73313-4 0  9994", "line2": "2 61727  53.1617  44.5767 0001116  92.3008 267.8121 15.30195733 90892"}, {"name": "STARLINK-32475", "line1": "1 61728U 24196X   26158.40588471 -.00000790  00000+0 -14550-4 0  9991", "line2": "2 61728  53.1645  44.5343 0001328  97.0488 263.0664 15.30198693 90891"}, {"name": "STARLINK-32442", "line1": "1 61729U 24196Y   26158.40907399 -.00002982  00000+0 -88705-4 0  9994", "line2": "2 61729  53.1611  44.5604 0000186 333.1488  26.9503 15.30164875 90893"}, {"name": "STARLINK-32362", "line1": "1 61845U 24202A   26158.50553958  .00000092  00000+0  12854-4 0  9990", "line2": "2 61845  43.0054  79.5276 0001058 263.4941  96.5790 15.27575231 89787"}, {"name": "STARLINK-32472", "line1": "1 61846U 24202B   26158.48002144 -.00003237  00000+0 -10827-3 0  9997", "line2": "2 61846  43.0053  80.1993 0000470 274.1856  85.8942 15.27546390 89180"}, {"name": "STARLINK-32352", "line1": "1 61847U 24202C   26158.50039326  .00000404  00000+0  24218-4 0  9994", "line2": "2 61847  43.0043  79.4861 0001712 272.6612  87.4043 15.27578983 89204"}, {"name": "STARLINK-32427", "line1": "1 61848U 24202D   26158.05810860  .00001024  00000+0  46751-4 0  9990", "line2": "2 61848  43.0058  82.1879 0002208 271.0845  88.9754 15.27582138 89126"}]