OBJECT_NAME,OBJECT_ID,EPOCH,MEAN_MOTION,ECCENTRICITY,INCLINATION,RA_OF_ASC_NODE,ARG_OF_PERICENTER,MEAN_ANOMALY,EPHEMERIS_TYPE,CLASSIFICATION_TYPE,NORAD_CAT_ID,ELEMENT_SET_NO,REV_AT_EPOCH,BSTAR,MEAN_MOTION_DOT,MEAN_MOTION_DDOT
STARLINK-32387,2024-195T,2026-06-07T02:18:47.160288,15.34391284,.0001386,53.1614,98.3988,111.6657,248.4494,0,U,61704,999,9089,.37777E-4,.9E-5,0
STARLINK-32515,2024-195U,2026-06-07T12:55:16.559904,15.30192798,.000125,53.1619,98.3082,94.6708,265.4436,0,U,61705,999,9093,.5766E-5,-.188E-5,0
STARLINK-32533,2024-195V,2026-06-07T13:18:23.741280,15.34384759,.0001339,53.1600,96.2818,92.6190,267.4966,0,U,61706,999,9096,.40945E-4,.1007E-4,0
STARLINK-32376,2024-196A,2026-06-07T09:11:03.225408,15.30191231,.0001209,53.1566,44.4026,99.2890,260.8248,0,U,61707,999,9090,.27595E-4,.458E-5,0
STARLINK-32402,2024-196B,2026-06-07T09:55:06.280896,15.30196169,.0001077,53.1603,44.5886,101.6929,258.4192,0,U,61708,999,9089,-.32468E-4,-.132E-4,0
STARLINK-32314,2024-196C,2026-06-07T09:30:48.746592,15.30185795,.0001418,53.1612,44.4800,84.3994,275.7169,0,U,61709,999,9089,.86764E-5,-.102E-5,0
STARLINK-32404,2024-196D,2026-06-06T23:24:05.481216,15.30201153,.0001233,53.1604,46.8278,59.7135,300.3987,0,U,61710,999,9082,.47825E-4,.1058E-4,0
STARLINK-32312,2024-196E,2026-06-07T09:20:10.281696,15.30196424,.0001678,53.1608,44.4334,88.1937,271.9256,0,U,61711,999,9089,-.28253E-4,-.1196E-4,0
STARLINK-32343,2024-196F,2026-06-07T10:07:16.121568,15.30192357,.0001151,53.1609,44.6404,52.0452,308.0653,0,U,61712,999,9089,.14616E-3,.3971E-4,0
STARLINK-32467,2024-196G,2026-06-06T07:41:30.257376,15.34043987,.00010356,53.1596,49.8569,75.1478,284.9639,0,U,61713,999,9072,.1590838E-2,.53148E-3,0
STARLINK-32440,2024-196H,2026-06-07T19:21:52.170912,15.30714476,.0004088,53.1651,42.7774,34.0341,326.0922,0,U,61714,999,9095,.21934E-2,.66244E-3,0
STARLINK-32459,2024-196J,2026-06-07T09:39:54.061056,15.30192606,.0001168,53.1621,44.5169,108.9522,251.1606,0,U,61715,999,9089,.13988E-3,.3785E-4,0
STARLINK-32465,2024-196K,2026-06-07T04:14:44.890080,15.30580658,.0004669,53.1608,45.9542,53.2531,306.8899,0,U,61716,999,9085,.15193E-2,.4546E-3,0
STARLINK-32457,2024-196L,2026-06-07T09:35:21.678144,15.30193355,.0001366,53.1601,44.5032,77.4628,282.6525,0,U,61717,999,9089,.31352E-4,.569E-5,0
STARLINK-32591,2024-196M,2026-06-07T09:02:42.609984,15.34407307,.000103,53.1613,30.8294,88.8637,271.2484,0,U,61718,999,9108,.81742E-4,.2387E-4,0
STARLINK-32344,2024-196N,2026-06-06T23:19:33.354912,15.30186596,.0001201,53.1607,46.8125,87.3567,272.7572,0,U,61719,999,9082,.151E-4,.88E-6,0
STARLINK-32322,2024-196P,2026-06-07T20:00:04.000032,15.34268682,.0003135,53.1594,42.8523,84.7352,321.4367,0,U,61720,999,589,.16329E-2,.54971E-3,0
STARLINK-32469,2024-196Q,2026-06-07T09:26:14.366112,15.30199724,.0001192,53.1614,44.4577,80.6111,279.5025,0,U,61721,999,9089,-.21743E-4,-.1003E-4,0
STARLINK-32438,2024-196R,2026-06-06T23:28:39.230112,15.30191026,.0001115,53.1603,46.8474,109.8148,250.2973,0,U,61722,999,9082,-.1021E-4,-.661E-5,0
STARLINK-32540,2024-196S,2026-06-07T21:02:37.477824,15.34373807,.0001181,53.1619,6.4483,106.4550,253.6582,0,U,61723,999,9146,-.60486E-4,-.2417E-4,0
STARLINK-32528,2024-196T,2026-06-07T20:00:04.000032,15.34368342,.0001209,53.1602,42.7612,94.6512,357.8807,0,U,61724,999,569,-.59504E-4,-.2384E-4,0
STARLINK-32573,2024-196U,2026-06-05T23:44:09.062592,15.30225783,.00016041,53.1607,51.3375,67.7246,292.3925,0,U,61725,999,9067,.12486858E-3,.3343E-4,0
STARLINK-32478,2024-196V,2026-06-07T10:02:42.350208,15.30199291,.000071,53.1591,44.6163,84.2125,275.8957,0,U,61726,999,9089,-.32068E-4,-.1308E-4,0
STARLINK-32511,2024-196W,2026-06-07T09:53:35.211840,15.30195733,.0001116,53.1617,44.5767,92.3008,267.8121,0,U,61727,999,9089,.73313E-4,.1813E-4,0
STARLINK-32475,2024-196X,2026-06-07T09:44:28.438944,15.30198693,.0001328,53.1645,44.5343,97.0488,263.0664,0,U,61728,999,9089,-.1455E-4,-.79E-5,0
STARLINK-32442,2024-196Y,2026-06-07T09:49:03.992736,15.30164875,.0000186,53.1611,44.5604,333.1488,26.9503,0,U,61729,999,9089,-.88705E-4,-.2982E-4,0
STARLINK-32362,2024-202A,2026-06-07T12:07:58.619712,15.27575231,.0001058,43.0054,79.5276,263.4941,96.5790,0,U,61845,999,8978,.12854E-4,.92E-6,0
STARLINK-32472,2024-202B,2026-06-07T11:31:13.852416,15.27546390,.000047,43.0053,80.1993,274.1856,85.8942,0,U,61846,999,8918,-.10827E-3,-.3237E-4,0
STARLINK-32352,2024-202C,2026-06-07T12:00:33.977664,15.27578983,.0001712,43.0043,79.4861,272.6612,87.4043,0,U,61847,999,8920,.24218E-4,.404E-5,0
STARLINK-32427,2024-202D,2026-06-07T01:23:40.583040,15.27582138,.0002208,43.0058,82.1879,271.0845,88.9754,0,U,61848,999,8912,.46751E-4,.1024E-4,0
